{
  "type": "FeatureCollection",
  "features": [
    {
      "type": "Feature",
      "properties": {
        "norad_id": 57400,
        "name": "TIANMU-1 08",
        "group": "weather",
        "lat": -63.11153973105002,
        "lon": 50.75475566610767,
        "alt_km": 493.26591177888804,
        "timestamp": "2025-12-12T11:38:31.059519+00:00",
        "meta_object_name": "TIANMU-1 08",
        "meta_object_id": "2023-101B",
        "meta_epoch": "2025-12-12T04:03:49.667040",
        "meta_mean_motion": 15.28042482,
        "meta_eccentricity": 0.0007518,
        "meta_inclination": 97.2868,
        "meta_ra_of_asc_node": 35.8296,
        "meta_arg_of_pericenter": 85.5265,
        "meta_mean_anomaly": 274.6833,
        "meta_ephemeris_type": 0,
        "meta_classification_type": "U",
        "meta_norad_cat_id": 57400,
        "meta_element_set_no": 999,
        "meta_rev_at_epoch": 13306,
        "meta_bstar": 0.0004173,
        "meta_mean_motion_dot": 0.00011356,
        "meta_mean_motion_ddot": 0,
        "tle_line1": "1 57400U 23101B   25346.16932485  .00011356  00000+0  41730-3 0  9994",
        "tle_line2": "2 57400  97.2868  35.8296 0007518  85.5265 274.6833 15.28042482133065"
      },
      "geometry": {
        "type": "Point",
        "coordinates": [
          50.75475566610767,
          -63.11153973105002
        ]
      }
    },
    {
      "type": "Feature",
      "properties": {
        "norad_id": 57401,
        "name": "TIANMU-1 09",
        "group": "weather",
        "lat": 8.406255812088594,
        "lon": 34.56904588764925,
        "alt_km": 482.3470381451516,
        "timestamp": "2025-12-12T11:38:31.059532+00:00",
        "meta_object_name": "TIANMU-1 09",
        "meta_object_id": "2023-101C",
        "meta_epoch": "2025-12-12T03:44:48.833664",
        "meta_mean_motion": 15.28071414,
        "meta_eccentricity": 0.0006783,
        "meta_inclination": 97.2825,
        "meta_ra_of_asc_node": 35.3304,
        "meta_arg_of_pericenter": 85.4927,
        "meta_mean_anomaly": 274.7088,
        "meta_ephemeris_type": 0,
        "meta_classification_type": "U",
        "meta_norad_cat_id": 57401,
        "meta_element_set_no": 999,
        "meta_rev_at_epoch": 13306,
        "meta_bstar": 0.00043377,
        "meta_mean_motion_dot": 0.00011816,
        "meta_mean_motion_ddot": 0,
        "tle_line1": "1 57401U 23101C   25346.15612076  .00011816  00000+0  43377-3 0  9995",
        "tle_line2": "2 57401  97.2825  35.3304 0006783  85.4927 274.7088 15.28071414133061"
      },
      "geometry": {
        "type": "Point",
        "coordinates": [
          34.56904588764925,
          8.406255812088594
        ]
      }
    },
    {
      "type": "Feature",
      "properties": {
        "norad_id": 57402,
        "name": "TIANMU-1 10",
        "group": "weather",
        "lat": -0.8235826348796227,
        "lon": -143.60406517572622,
        "alt_km": 485.47376944481584,
        "timestamp": "2025-12-12T11:38:31.059542+00:00",
        "meta_object_name": "TIANMU-1 10",
        "meta_object_id": "2023-101D",
        "meta_epoch": "2025-12-12T04:34:04.636416",
        "meta_mean_motion": 15.28063659,
        "meta_eccentricity": 0.0008557,
        "meta_inclination": 97.2906,
        "meta_ra_of_asc_node": 36.213,
        "meta_arg_of_pericenter": 85.043,
        "meta_mean_anomaly": 275.1786,
        "meta_ephemeris_type": 0,
        "meta_classification_type": "U",
        "meta_norad_cat_id": 57402,
        "meta_element_set_no": 999,
        "meta_rev_at_epoch": 13306,
        "meta_bstar": 0.00041306,
        "meta_mean_motion_dot": 0.00011249,
        "meta_mean_motion_ddot": 0,
        "tle_line1": "1 57402U 23101D   25346.19033144  .00011249  00000+0  41306-3 0  9993",
        "tle_line2": "2 57402  97.2906  36.2130 0008557  85.0430 275.1786 15.28063659133067"
      },
      "geometry": {
        "type": "Point",
        "coordinates": [
          -143.60406517572622,
          -0.8235826348796227
        ]
      }
    },
    {
      "type": "Feature",
      "properties": {
        "norad_id": 57490,
        "name": "FENGYUN 3F",
        "group": "weather",
        "lat": 0.5812550633491609,
        "lon": -125.12833012308052,
        "alt_km": 828.4598808576438,
        "timestamp": "2025-12-12T11:38:31.059553+00:00",
        "meta_object_name": "FENGYUN 3F",
        "meta_object_id": "2023-111A",
        "meta_epoch": "2025-12-12T04:02:07.466208",
        "meta_mean_motion": 14.1989336,
        "meta_eccentricity": 6.77e-05,
        "meta_inclination": 98.7084,
        "meta_ra_of_asc_node": 54.4708,
        "meta_arg_of_pericenter": 100.9945,
        "meta_mean_anomaly": 259.1308,
        "meta_ephemeris_type": 0,
        "meta_classification_type": "U",
        "meta_norad_cat_id": 57490,
        "meta_element_set_no": 999,
        "meta_rev_at_epoch": 12232,
        "meta_bstar": 8.5128e-05,
        "meta_mean_motion_dot": 1.37e-06,
        "meta_mean_motion_ddot": 0,
        "tle_line1": "1 57490U 23111A   25346.16814197  .00000137  00000+0  85128-4 0  9998",
        "tle_line2": "2 57490  98.7084  54.4708 0000677 100.9945 259.1308 14.19893360122321"
      },
      "geometry": {
        "type": "Point",
        "coordinates": [
          -125.12833012308052,
          0.5812550633491609
        ]
      }
    },
    {
      "type": "Feature",
      "properties": {
        "norad_id": 58584,
        "name": "ARKTIKA-M 2",
        "group": "weather",
        "lat": 59.60156947697379,
        "lon": -125.6682051950446,
        "alt_km": 36019.23612458227,
        "timestamp": "2025-12-12T11:38:31.059564+00:00",
        "meta_object_name": "ARKTIKA-M 2",
        "meta_object_id": "2023-198A",
        "meta_epoch": "2025-12-08T20:10:13.977120",
        "meta_mean_motion": 2.0060476,
        "meta_eccentricity": 0.68646991,
        "meta_inclination": 63.2247,
        "meta_ra_of_asc_node": 175.3152,
        "meta_arg_of_pericenter": 268.1185,
        "meta_mean_anomaly": 18.8267,
        "meta_ephemeris_type": 0,
        "meta_classification_type": "U",
        "meta_norad_cat_id": 58584,
        "meta_element_set_no": 999,
        "meta_rev_at_epoch": 1450,
        "meta_bstar": 0,
        "meta_mean_motion_dot": 1.66e-06,
        "meta_mean_motion_ddot": 0,
        "tle_line1": "1 58584U 23198A   25342.84043955  .00000166  00000+0  00000+0 0  9998",
        "tle_line2": "2 58584  63.2247 175.3152 6864699 268.1185  18.8267  2.00604760 14506"
      },
      "geometry": {
        "type": "Point",
        "coordinates": [
          -125.6682051950446,
          59.60156947697379
        ]
      }
    },
    {
      "type": "Feature",
      "properties": {
        "norad_id": 58645,
        "name": "TIANMU-1 11",
        "group": "weather",
        "lat": 2.8339580074784134,
        "lon": 5.746191526946737,
        "alt_km": 491.29585199598296,
        "timestamp": "2025-12-12T11:38:31.059578+00:00",
        "meta_object_name": "TIANMU-1 11",
        "meta_object_id": "2023-205A",
        "meta_epoch": "2025-12-12T03:45:12.464064",
        "meta_mean_motion": 15.24588503,
        "meta_eccentricity": 0.0007962,
        "meta_inclination": 97.3612,
        "meta_ra_of_asc_node": 5.7899,
        "meta_arg_of_pericenter": 312.8781,
        "meta_mean_anomaly": 47.1788,
        "meta_ephemeris_type": 0,
        "meta_classification_type": "U",
        "meta_norad_cat_id": 58645,
        "meta_element_set_no": 999,
        "meta_rev_at_epoch": 10900,
        "meta_bstar": 0.00039774,
        "meta_mean_motion_dot": 9.745e-05,
        "meta_mean_motion_ddot": 0,
        "tle_line1": "1 58645U 23205A   25346.15639426  .00009745  00000+0  39774-3 0  9993",
        "tle_line2": "2 58645  97.3612   5.7899 0007962 312.8781  47.1788 15.24588503109006"
      },
      "geometry": {
        "type": "Point",
        "coordinates": [
          5.746191526946737,
          2.8339580074784134
        ]
      }
    },
    {
      "type": "Feature",
      "properties": {
        "norad_id": 58646,
        "name": "TIANMU-1 12",
        "group": "weather",
        "lat": -34.93798577860953,
        "lon": -179.26248040076655,
        "alt_km": 497.8197861762492,
        "timestamp": "2025-12-12T11:38:31.059588+00:00",
        "meta_object_name": "TIANMU-1 12",
        "meta_object_id": "2023-205B",
        "meta_epoch": "2025-12-12T04:23:56.803776",
        "meta_mean_motion": 15.24471974,
        "meta_eccentricity": 0.0005857,
        "meta_inclination": 97.36,
        "meta_ra_of_asc_node": 5.6219,
        "meta_arg_of_pericenter": 293.8069,
        "meta_mean_anomaly": 66.2554,
        "meta_ephemeris_type": 0,
        "meta_classification_type": "U",
        "meta_norad_cat_id": 58646,
        "meta_element_set_no": 999,
        "meta_rev_at_epoch": 10899,
        "meta_bstar": 0.00038702,
        "meta_mean_motion_dot": 9.444e-05,
        "meta_mean_motion_ddot": 0,
        "tle_line1": "1 58646U 23205B   25346.18329634  .00009444  00000+0  38702-3 0  9990",
        "tle_line2": "2 58646  97.3600   5.6219 0005857 293.8069  66.2554 15.24471974108990"
      },
      "geometry": {
        "type": "Point",
        "coordinates": [
          -179.26248040076655,
          -34.93798577860953
        ]
      }
    }
  ]
}